ONEWEB-0403             
1 50483U 21132Q   24214.48315511  .00000006  00000+0 -17080-4 0  9996
2 50483  87.9133 111.7717 0002124  76.1761 283.9607 13.18686553131359
ONEWEB-0404             
1 50484U 21132R   24214.56797926 -.00000482  00000+0 -13963-2 0  9993
2 50484  87.8999 157.3484 0002486  84.8132 275.3279 13.11418103125962
ONEWEB-0405             
1 50485U 21132S   24214.42308564  .00000032  00000+0  48378-4 0  9994
2 50485  87.9133 111.7730 0002213  66.7539 293.3826 13.18687156131744
ONEWEB-0406             
1 50486U 21132T   24214.63965499  .00000013  00000+0 -49068-6 0  9993
2 50486  87.9135 111.7426 0002175  96.0534 264.0846 13.18686596131404
ONEWEB-0407             
1 50487U 21132U   24214.78508327  .00000012  00000+0 -15871-5 0  9996
2 50487  87.9129 111.7134 0002099  73.2857 286.8506 13.18686204132653
ONEWEB-0409             
1 50488U 21132V   24214.56627248 -.00000531  00000+0 -15339-2 0  9990
2 50488  87.8991 157.3412 0002248  89.8638 270.2748 13.11415362125858
ONEWEB-0412             
1 50489U 21132W   24214.47051197  .00000033  00000+0  51085-4 0  9990
2 50489  87.9134 111.7778 0002237  65.4578 294.6787 13.18684691131411
ONEWEB-0413             
1 50490U 21132X   24214.24762690  .00000062  00000+0  12526-3 0  9992
2 50490  87.9134 111.8350 0002002  64.8067 295.3273 13.18686583131326
